{
  "type": "FeatureCollection",
  "name": "direct-transfer-coverage",
  "features": [
    {
      "type": "Feature",
      "properties": {
        "coverageId": "primary_area",
        "pricingMode": "standard",
        "active": true,
        "priority": 100,
        "shape": "circle",
        "centerLng": -99.16,
        "centerLat": 19.36,
        "radiusMeters": 38000,
        "description": "Cobertura base Direct Transfer mediante círculo operativo concéntrico."
      },
      "geometry": {
        "type": "Polygon",
        "coordinates": [
          [
            [
              -98.797377,
              19.352748
            ],
            [
              -98.797558,
              19.347118
            ],
            [
              -98.797836,
              19.341492
            ],
            [
              -98.798211,
              19.33587
            ],
            [
              -98.798683,
              19.330256
            ],
            [
              -98.799252,
              19.324649
            ],
            [
              -98.799917,
              19.319052
            ],
            [
              -98.800678,
              19.313466
            ],
            [
              -98.801535,
              19.307892
            ],
            [
              -98.802488,
              19.302333
            ],
            [
              -98.803537,
              19.296789
            ],
            [
              -98.804681,
              19.291263
            ],
            [
              -98.80592,
              19.285755
            ],
            [
              -98.807254,
              19.280267
            ],
            [
              -98.808682,
              19.2748
            ],
            [
              -98.810204,
              19.269356
            ],
            [
              -98.811819,
              19.263937
            ],
            [
              -98.813528,
              19.258544
            ],
            [
              -98.815329,
              19.253178
            ],
            [
              -98.817222,
              19.24784
            ],
            [
              -98.819206,
              19.242533
            ],
            [
              -98.821282,
              19.237257
            ],
            [
              -98.823448,
              19.232014
            ],
            [
              -98.825703,
              19.226806
            ],
            [
              -98.828048,
              19.221633
            ],
            [
              -98.830482,
              19.216498
            ],
            [
              -98.833004,
              19.211401
            ],
            [
              -98.835613,
              19.206344
            ],
            [
              -98.838308,
              19.201328
            ],
            [
              -98.841089,
              19.196354
            ],
            [
              -98.843955,
              19.191425
            ],
            [
              -98.846906,
              19.18654
            ],
            [
              -98.84994,
              19.181703
            ],
            [
              -98.853057,
              19.176912
            ],
            [
              -98.856255,
              19.172171
            ],
            [
              -98.859535,
              19.167481
            ],
            [
              -98.862895,
              19.162842
            ],
            [
              -98.866334,
              19.158255
            ],
            [
              -98.869851,
              19.153723
            ],
            [
              -98.873445,
              19.149246
            ],
            [
              -98.877116,
              19.144825
            ],
            [
              -98.880862,
              19.140462
            ],
            [
              -98.884683,
              19.136158
            ],
            [
              -98.888577,
              19.131914
            ],
            [
              -98.892543,
              19.12773
            ],
            [
              -98.896581,
              19.123609
            ],
            [
              -98.900688,
              19.119551
            ],
            [
              -98.904865,
              19.115558
            ],
            [
              -98.90911,
              19.111629
            ],
            [
              -98.913421,
              19.107768
            ],
            [
              -98.917798,
              19.103973
            ],
            [
              -98.92224,
              19.100248
            ],
            [
              -98.926745,
              19.096591
            ],
            [
              -98.931312,
              19.093005
            ],
            [
              -98.93594,
              19.089491
            ],
            [
              -98.940627,
              19.086049
            ],
            [
              -98.945373,
              19.08268
            ],
            [
              -98.950176,
              19.079385
            ],
            [
              -98.955035,
              19.076165
            ],
            [
              -98.959948,
              19.073021
            ],
            [
              -98.964914,
              19.069954
            ],
            [
              -98.969933,
              19.066964
            ],
            [
              -98.975002,
              19.064053
            ],
            [
              -98.98012,
              19.06122
            ],
            [
              -98.985286,
              19.058468
            ],
            [
              -98.990499,
              19.055796
            ],
            [
              -98.995756,
              19.053205
            ],
            [
              -99.001057,
              19.050697
            ],
            [
              -99.006401,
              19.048271
            ],
            [
              -99.011785,
              19.045928
            ],
            [
              -99.017209,
              19.043669
            ],
            [
              -99.022671,
              19.041495
            ],
            [
              -99.028169,
              19.039406
            ],
            [
              -99.033702,
              19.037402
            ],
            [
              -99.039269,
              19.035485
            ],
            [
              -99.044868,
              19.033654
            ],
            [
              -99.050497,
              19.03191
            ],
            [
              -99.056156,
              19.030254
            ],
            [
              -99.061842,
              19.028686
            ],
            [
              -99.067555,
              19.027207
            ],
            [
              -99.073292,
              19.025816
            ],
            [
              -99.079052,
              19.024515
            ],
            [
              -99.084833,
              19.023303
            ],
            [
              -99.090634,
              19.022181
            ],
            [
              -99.096454,
              19.021149
            ],
            [
              -99.102291,
              19.020208
            ],
            [
              -99.108143,
              19.019358
            ],
            [
              -99.114009,
              19.018598
            ],
            [
              -99.119887,
              19.01793
            ],
            [
              -99.125776,
              19.017353
            ],
            [
              -99.131674,
              19.016868
            ],
            [
              -99.137579,
              19.016474
            ],
            [
              -99.14349,
              19.016171
            ],
            [
              -99.149406,
              19.015961
            ],
            [
              -99.155325,
              19.015843
            ],
            [
              -99.161244,
              19.015816
            ],
            [
              -99.167164,
              19.015881
            ],
            [
              -99.173081,
              19.016038
            ],
            [
              -99.178995,
              19.016287
            ],
            [
              -99.184904,
              19.016628
            ],
            [
              -99.190807,
              19.017061
            ],
            [
              -99.196701,
              19.017584
            ],
            [
              -99.202586,
              19.0182
            ],
            [
              -99.208459,
              19.018907
            ],
            [
              -99.214319,
              19.019704
            ],
            [
              -99.220165,
              19.020593
            ],
            [
              -99.225995,
              19.021572
            ],
            [
              -99.231807,
              19.022642
            ],
            [
              -99.2376,
              19.023802
            ],
            [
              -99.243373,
              19.025051
            ],
            [
              -99.249123,
              19.02639
            ],
            [
              -99.25485,
              19.027818
            ],
            [
              -99.260552,
              19.029335
            ],
            [
              -99.266226,
              19.03094
            ],
            [
              -99.271873,
              19.032633
            ],
            [
              -99.27749,
              19.034413
            ],
            [
              -99.283075,
              19.03628
            ],
            [
              -99.288628,
              19.038234
            ],
            [
              -99.294147,
              19.040274
            ],
            [
              -99.29963,
              19.042399
            ],
            [
              -99.305076,
              19.044609
            ],
            [
              -99.310483,
              19.046903
            ],
            [
              -99.315851,
              19.049281
            ],
            [
              -99.321177,
              19.051742
            ],
            [
              -99.32646,
              19.054285
            ],
            [
              -99.331699,
              19.05691
            ],
            [
              -99.336892,
              19.059615
            ],
            [
              -99.342038,
              19.062402
            ],
            [
              -99.347135,
              19.065267
            ],
            [
              -99.352183,
              19.068212
            ],
            [
              -99.35718,
              19.071234
            ],
            [
              -99.362124,
              19.074334
            ],
            [
              -99.367015,
              19.07751
            ],
            [
              -99.37185,
              19.080761
            ],
            [
              -99.376629,
              19.084087
            ],
            [
              -99.381351,
              19.087487
            ],
            [
              -99.386013,
              19.09096
            ],
            [
              -99.390616,
              19.094504
            ],
            [
              -99.395157,
              19.09812
            ],
            [
              -99.399635,
              19.101806
            ],
            [
              -99.40405,
              19.10556
            ],
            [
              -99.408399,
              19.109383
            ],
            [
              -99.412683,
              19.113273
            ],
            [
              -99.416899,
              19.117229
            ],
            [
              -99.421047,
              19.12125
            ],
            [
              -99.425125,
              19.125334
            ],
            [
              -99.429133,
              19.129482
            ],
            [
              -99.433069,
              19.133691
            ],
            [
              -99.436932,
              19.13796
            ],
            [
              -99.440722,
              19.142289
            ],
            [
              -99.444436,
              19.146677
            ],
            [
              -99.448075,
              19.151121
            ],
            [
              -99.451637,
              19.155622
            ],
            [
              -99.455122,
              19.160177
            ],
            [
              -99.458527,
              19.164786
            ],
            [
              -99.461854,
              19.169447
            ],
            [
              -99.465099,
              19.174159
            ],
            [
              -99.468264,
              19.17892
            ],
            [
              -99.471346,
              19.183731
            ],
            [
              -99.474345,
              19.188588
            ],
            [
              -99.47726,
              19.193492
            ],
            [
              -99.480091,
              19.19844
            ],
            [
              -99.482836,
              19.203431
            ],
            [
              -99.485495,
              19.208465
            ],
            [
              -99.488067,
              19.213539
            ],
            [
              -99.490552,
              19.218652
            ],
            [
              -99.492948,
              19.223804
            ],
            [
              -99.495256,
              19.228991
            ],
            [
              -99.497474,
              19.234214
            ],
            [
              -99.499602,
              19.239471
            ],
            [
              -99.501639,
              19.24476
            ],
            [
              -99.503585,
              19.250081
            ],
            [
              -99.50544,
              19.25543
            ],
            [
              -99.507202,
              19.260808
            ],
            [
              -99.508871,
              19.266212
            ],
            [
              -99.510447,
              19.271642
            ],
            [
              -99.51193,
              19.277096
            ],
            [
              -99.513318,
              19.282571
            ],
            [
              -99.514612,
              19.288068
            ],
            [
              -99.515811,
              19.293584
            ],
            [
              -99.516915,
              19.299118
            ],
            [
              -99.517924,
              19.304669
            ],
            [
              -99.518837,
              19.310234
            ],
            [
              -99.519654,
              19.315813
            ],
            [
              -99.520375,
              19.321404
            ],
            [
              -99.520999,
              19.327005
            ],
            [
              -99.521527,
              19.332615
            ],
            [
              -99.521958,
              19.338233
            ],
            [
              -99.522292,
              19.343857
            ],
            [
              -99.52253,
              19.349485
            ],
            [
              -99.52267,
              19.355116
            ],
            [
              -99.522713,
              19.360749
            ],
            [
              -99.522659,
              19.366381
            ],
            [
              -99.522508,
              19.372012
            ],
            [
              -99.52226,
              19.37764
            ],
            [
              -99.521915,
              19.383264
            ],
            [
              -99.521472,
              19.388881
            ],
            [
              -99.520934,
              19.394491
            ],
            [
              -99.520298,
              19.400092
            ],
            [
              -99.519566,
              19.405682
            ],
            [
              -99.518737,
              19.41126
            ],
            [
              -99.517812,
              19.416824
            ],
            [
              -99.516792,
              19.422373
            ],
            [
              -99.515676,
              19.427906
            ],
            [
              -99.514464,
              19.433421
            ],
            [
              -99.513157,
              19.438916
            ],
            [
              -99.511756,
              19.44439
            ],
            [
              -99.51026,
              19.449842
            ],
            [
              -99.50867,
              19.45527
            ],
            [
              -99.506987,
              19.460672
            ],
            [
              -99.505211,
              19.466048
            ],
            [
              -99.503342,
              19.471395
            ],
            [
              -99.501381,
              19.476713
            ],
            [
              -99.499328,
              19.481999
            ],
            [
              -99.497184,
              19.487253
            ],
            [
              -99.49495,
              19.492473
            ],
            [
              -99.492625,
              19.497658
            ],
            [
              -99.490212,
              19.502806
            ],
            [
              -99.487709,
              19.507915
            ],
            [
              -99.485119,
              19.512985
            ],
            [
              -99.482441,
              19.518015
            ],
            [
              -99.479677,
              19.523002
            ],
            [
              -99.476827,
              19.527945
            ],
            [
              -99.473892,
              19.532843
            ],
            [
              -99.470872,
              19.537696
            ],
            [
              -99.467769,
              19.542501
            ],
            [
              -99.464583,
              19.547256
            ],
            [
              -99.461315,
              19.551962
            ],
            [
              -99.457966,
              19.556617
            ],
            [
              -99.454537,
              19.561219
            ],
            [
              -99.451029,
              19.565767
            ],
            [
              -99.447442,
              19.57026
            ],
            [
              -99.443779,
              19.574696
            ],
            [
              -99.440038,
              19.579075
            ],
            [
              -99.436223,
              19.583396
            ],
            [
              -99.432333,
              19.587656
            ],
            [
              -99.42837,
              19.591856
            ],
            [
              -99.424335,
              19.595994
            ],
            [
              -99.420229,
              19.600068
            ],
            [
              -99.416052,
              19.604078
            ],
            [
              -99.411807,
              19.608023
            ],
            [
              -99.407494,
              19.611901
            ],
            [
              -99.403114,
              19.615712
            ],
            [
              -99.398669,
              19.619454
            ],
            [
              -99.394159,
              19.623126
            ],
            [
              -99.389587,
              19.626728
            ],
            [
              -99.384952,
              19.630259
            ],
            [
              -99.380257,
              19.633717
            ],
            [
              -99.375503,
              19.637102
            ],
            [
              -99.370691,
              19.640412
            ],
            [
              -99.365822,
              19.643648
            ],
            [
              -99.360897,
              19.646807
            ],
            [
              -99.355918,
              19.649889
            ],
            [
              -99.350887,
              19.652894
            ],
            [
              -99.345804,
              19.65582
            ],
            [
              -99.340671,
              19.658666
            ],
            [
              -99.33549,
              19.661433
            ],
            [
              -99.330261,
              19.664118
            ],
            [
              -99.324986,
              19.666723
            ],
            [
              -99.319667,
              19.669244
            ],
            [
              -99.314304,
              19.671683
            ],
            [
              -99.3089,
              19.674038
            ],
            [
              -99.303456,
              19.676309
            ],
            [
              -99.297974,
              19.678495
            ],
            [
              -99.292454,
              19.680596
            ],
            [
              -99.286898,
              19.682611
            ],
            [
              -99.281308,
              19.684539
            ],
            [
              -99.275685,
              19.68638
            ],
            [
              -99.270032,
              19.688133
            ],
            [
              -99.264348,
              19.689798
            ],
            [
              -99.258637,
              19.691375
            ],
            [
              -99.252898,
              19.692863
            ],
            [
              -99.247135,
              19.694261
            ],
            [
              -99.241348,
              19.69557
            ],
            [
              -99.23554,
              19.696789
            ],
            [
              -99.229711,
              19.697917
            ],
            [
              -99.223863,
              19.698955
            ],
            [
              -99.217998,
              19.699901
            ],
            [
              -99.212117,
              19.700757
            ],
            [
              -99.206222,
              19.701521
            ],
            [
              -99.200315,
              19.702193
            ],
            [
              -99.194397,
              19.702773
            ],
            [
              -99.188469,
              19.703261
            ],
            [
              -99.182534,
              19.703658
            ],
            [
              -99.176593,
              19.703962
            ],
            [
              -99.170648,
              19.704173
            ],
            [
              -99.164699,
              19.704292
            ],
            [
              -99.158749,
              19.704319
            ],
            [
              -99.1528,
              19.704254
            ],
            [
              -99.146852,
              19.704096
            ],
            [
              -99.140908,
              19.703845
            ],
            [
              -99.13497,
              19.703502
            ],
            [
              -99.129037,
              19.703067
            ],
            [
              -99.123114,
              19.70254
            ],
            [
              -99.1172,
              19.701921
            ],
            [
              -99.111298,
              19.701211
            ],
            [
              -99.105409,
              19.700408
            ],
            [
              -99.099534,
              19.699514
            ],
            [
              -99.093676,
              19.69853
            ],
            [
              -99.087836,
              19.697454
            ],
            [
              -99.082016,
              19.696287
            ],
            [
              -99.076216,
              19.695031
            ],
            [
              -99.070439,
              19.693684
            ],
            [
              -99.064686,
              19.692248
            ],
            [
              -99.058959,
              19.690723
            ],
            [
              -99.053259,
              19.689109
            ],
            [
              -99.047588,
              19.687407
            ],
            [
              -99.041947,
              19.685616
            ],
            [
              -99.036338,
              19.683739
            ],
            [
              -99.030762,
              19.681774
            ],
            [
              -99.025221,
              19.679723
            ],
            [
              -99.019717,
              19.677587
            ],
            [
              -99.01425,
              19.675365
            ],
            [
              -99.008823,
              19.673058
            ],
            [
              -99.003436,
              19.670668
            ],
            [
              -98.998092,
              19.668194
            ],
            [
              -98.992791,
              19.665638
            ],
            [
              -98.987535,
              19.662999
            ],
            [
              -98.982326,
              19.660279
            ],
            [
              -98.977165,
              19.657479
            ],
            [
              -98.972053,
              19.654599
            ],
            [
              -98.966991,
              19.65164
            ],
            [
              -98.961982,
              19.648603
            ],
            [
              -98.957026,
              19.645488
            ],
            [
              -98.952124,
              19.642297
            ],
            [
              -98.947279,
              19.63903
            ],
            [
              -98.942491,
              19.635688
            ],
            [
              -98.937761,
              19.632272
            ],
            [
              -98.933092,
              19.628783
            ],
            [
              -98.928483,
              19.625223
            ],
            [
              -98.923937,
              19.621591
            ],
            [
              -98.919455,
              19.617889
            ],
            [
              -98.915037,
              19.614118
            ],
            [
              -98.910685,
              19.610279
            ],
            [
              -98.9064,
              19.606372
            ],
            [
              -98.902184,
              19.6024
            ],
            [
              -98.898036,
              19.598363
            ],
            [
              -98.89396,
              19.594262
            ],
            [
              -98.889955,
              19.590098
            ],
            [
              -98.886022,
              19.585873
            ],
            [
              -98.882164,
              19.581587
            ],
            [
              -98.87838,
              19.577241
            ],
            [
              -98.874672,
              19.572838
            ],
            [
              -98.87104,
              19.568377
            ],
            [
              -98.867487,
              19.563861
            ],
            [
              -98.864012,
              19.55929
            ],
            [
              -98.860616,
              19.554666
            ],
            [
              -98.857301,
              19.54999
            ],
            [
              -98.854068,
              19.545263
            ],
            [
              -98.850917,
              19.540486
            ],
            [
              -98.847848,
              19.535661
            ],
            [
              -98.844864,
              19.53079
            ],
            [
              -98.841964,
              19.525872
            ],
            [
              -98.83915,
              19.52091
            ],
            [
              -98.836422,
              19.515905
            ],
            [
              -98.833781,
              19.510859
            ],
            [
              -98.831228,
              19.505772
            ],
            [
              -98.828763,
              19.500646
            ],
            [
              -98.826387,
              19.495482
            ],
            [
              -98.8241,
              19.490283
            ],
            [
              -98.821904,
              19.485048
            ],
            [
              -98.819798,
              19.479781
            ],
            [
              -98.817784,
              19.474481
            ],
            [
              -98.815861,
              19.469151
            ],
            [
              -98.814031,
              19.463791
            ],
            [
              -98.812294,
              19.458404
            ],
            [
              -98.81065,
              19.452991
            ],
            [
              -98.8091,
              19.447553
            ],
            [
              -98.807643,
              19.442091
            ],
            [
              -98.806282,
              19.436608
            ],
            [
              -98.805015,
              19.431105
            ],
            [
              -98.803843,
              19.425582
            ],
            [
              -98.802767,
              19.420042
            ],
            [
              -98.801787,
              19.414486
            ],
            [
              -98.800903,
              19.408916
            ],
            [
              -98.800115,
              19.403333
            ],
            [
              -98.799423,
              19.397738
            ],
            [
              -98.798828,
              19.392133
            ],
            [
              -98.79833,
              19.38652
            ],
            [
              -98.797928,
              19.3809
            ],
            [
              -98.797624,
              19.375275
            ],
            [
              -98.797417,
              19.369645
            ],
            [
              -98.797307,
              19.364013
            ],
            [
              -98.797293,
              19.358381
            ],
            [
              -98.797377,
              19.352748
            ]
          ]
        ]
      }
    },
    {
      "type": "Feature",
      "properties": {
        "coverageId": "extended_ring",
        "pricingMode": "extended",
        "active": true,
        "priority": 50,
        "shape": "donut",
        "centerLng": -99.16,
        "centerLat": 19.36,
        "innerRadiusMeters": 38000,
        "outerRadiusMeters": 78000,
        "description": "Anillo extendido Direct Transfer. Incluye Toluca, Cuernavaca y Tepoztlán con margen operativo."
      },
      "geometry": {
        "type": "Polygon",
        "coordinates": [
          [
            [
              -98.416118,
              19.33262
            ],
            [
              -98.416721,
              19.321072
            ],
            [
              -98.417522,
              19.309536
            ],
            [
              -98.418523,
              19.298014
            ],
            [
              -98.419721,
              19.286509
            ],
            [
              -98.421118,
              19.275024
            ],
            [
              -98.422712,
              19.263562
            ],
            [
              -98.424502,
              19.252128
            ],
            [
              -98.42649,
              19.240722
            ],
            [
              -98.428673,
              19.229349
            ],
            [
              -98.431051,
              19.218012
            ],
            [
              -98.433624,
              19.206713
            ],
            [
              -98.436391,
              19.195456
            ],
            [
              -98.439351,
              19.184243
            ],
            [
              -98.442503,
              19.173079
            ],
            [
              -98.445846,
              19.161964
            ],
            [
              -98.449379,
              19.150903
            ],
            [
              -98.453102,
              19.139899
            ],
            [
              -98.457014,
              19.128954
            ],
            [
              -98.461112,
              19.118071
            ],
            [
              -98.465397,
              19.107254
            ],
            [
              -98.469866,
              19.096505
            ],
            [
              -98.47452,
              19.085826
            ],
            [
              -98.479355,
              19.075222
            ],
            [
              -98.484372,
              19.064694
            ],
            [
              -98.489569,
              19.054245
            ],
            [
              -98.494943,
              19.043879
            ],
            [
              -98.500495,
              19.033598
            ],
            [
              -98.506222,
              19.023404
            ],
            [
              -98.512122,
              19.013301
            ],
            [
              -98.518195,
              19.00329
            ],
            [
              -98.524438,
              18.993376
            ],
            [
              -98.53085,
              18.98356
            ],
            [
              -98.537429,
              18.973844
            ],
            [
              -98.544173,
              18.964233
            ],
            [
              -98.551081,
              18.954727
            ],
            [
              -98.55815,
              18.94533
            ],
            [
              -98.565379,
              18.936044
            ],
            [
              -98.572766,
              18.926872
            ],
            [
              -98.580308,
              18.917815
            ],
            [
              -98.588004,
              18.908877
            ],
            [
              -98.595852,
              18.90006
            ],
            [
              -98.603849,
              18.891365
            ],
            [
              -98.611994,
              18.882796
            ],
            [
              -98.620283,
              18.874355
            ],
            [
              -98.628716,
              18.866044
            ],
            [
              -98.63729,
              18.857864
            ],
            [
              -98.646001,
              18.849819
            ],
            [
              -98.654849,
              18.84191
            ],
            [
              -98.663831,
              18.83414
            ],
            [
              -98.672944,
              18.82651
            ],
            [
              -98.682185,
              18.819022
            ],
            [
              -98.691553,
              18.81168
            ],
            [
              -98.701045,
              18.804483
            ],
            [
              -98.710659,
              18.797435
            ],
            [
              -98.720391,
              18.790537
            ],
            [
              -98.73024,
              18.783791
            ],
            [
              -98.740202,
              18.777199
            ],
            [
              -98.750275,
              18.770762
            ],
            [
              -98.760456,
              18.764483
            ],
            [
              -98.770743,
              18.758362
            ],
            [
              -98.781133,
              18.752402
            ],
            [
              -98.791622,
              18.746604
            ],
            [
              -98.802209,
              18.740969
            ],
            [
              -98.812891,
              18.7355
            ],
            [
              -98.823664,
              18.730197
            ],
            [
              -98.834526,
              18.725062
            ],
            [
              -98.845474,
              18.720096
            ],
            [
              -98.856505,
              18.715301
            ],
            [
              -98.867616,
              18.710678
            ],
            [
              -98.878805,
              18.706228
            ],
            [
              -98.890067,
              18.701951
            ],
            [
              -98.901401,
              18.697851
            ],
            [
              -98.912803,
              18.693926
            ],
            [
              -98.92427,
              18.69018
            ],
            [
              -98.935799,
              18.686611
            ],
            [
              -98.947388,
              18.683222
            ],
            [
              -98.959032,
              18.680013
            ],
            [
              -98.97073,
              18.676986
            ],
            [
              -98.982477,
              18.67414
            ],
            [
              -98.994272,
              18.671477
            ],
            [
              -99.00611,
              18.668997
            ],
            [
              -99.017988,
              18.666701
            ],
            [
              -99.029904,
              18.66459
            ],
            [
              -99.041855,
              18.662664
            ],
            [
              -99.053836,
              18.660924
            ],
            [
              -99.065846,
              18.65937
            ],
            [
              -99.07788,
              18.658002
            ],
            [
              -99.089936,
              18.656822
            ],
            [
              -99.10201,
              18.655828
            ],
            [
              -99.1141,
              18.655022
            ],
            [
              -99.126202,
              18.654404
            ],
            [
              -99.138312,
              18.653973
            ],
            [
              -99.150429,
              18.653731
            ],
            [
              -99.162548,
              18.653676
            ],
            [
              -99.174666,
              18.65381
            ],
            [
              -99.18678,
              18.654131
            ],
            [
              -99.198888,
              18.654641
            ],
            [
              -99.210985,
              18.655338
            ],
            [
              -99.223068,
              18.656223
            ],
            [
              -99.235135,
              18.657295
            ],
            [
              -99.247183,
              18.658554
            ],
            [
              -99.259207,
              18.660001
            ],
            [
              -99.271205,
              18.661633
            ],
            [
              -99.283174,
              18.663451
            ],
            [
              -99.29511,
              18.665455
            ],
            [
              -99.307011,
              18.667644
            ],
            [
              -99.318872,
              18.670017
            ],
            [
              -99.330692,
              18.672574
            ],
            [
              -99.342467,
              18.675314
            ],
            [
              -99.354194,
              18.678236
            ],
            [
              -99.36587,
              18.68134
            ],
            [
              -99.377491,
              18.684625
            ],
            [
              -99.389055,
              18.68809
            ],
            [
              -99.400559,
              18.691733
            ],
            [
              -99.411999,
              18.695555
            ],
            [
              -99.423373,
              18.699553
            ],
            [
              -99.434677,
              18.703728
            ],
            [
              -99.445908,
              18.708077
            ],
            [
              -99.457065,
              18.712601
            ],
            [
              -99.468142,
              18.717296
            ],
            [
              -99.479139,
              18.722163
            ],
            [
              -99.490051,
              18.7272
            ],
            [
              -99.500876,
              18.732406
            ],
            [
              -99.511611,
              18.737779
            ],
            [
              -99.522253,
              18.743318
            ],
            [
              -99.5328,
              18.749022
            ],
            [
              -99.543248,
              18.754888
            ],
            [
              -99.553595,
              18.760916
            ],
            [
              -99.563837,
              18.767103
            ],
            [
              -99.573974,
              18.773449
            ],
            [
              -99.584,
              18.779951
            ],
            [
              -99.593915,
              18.786609
            ],
            [
              -99.603715,
              18.793419
            ],
            [
              -99.613397,
              18.80038
            ],
            [
              -99.62296,
              18.807491
            ],
            [
              -99.6324,
              18.814749
            ],
            [
              -99.641716,
              18.822153
            ],
            [
              -99.650904,
              18.8297
            ],
            [
              -99.659961,
              18.83739
            ],
            [
              -99.668887,
              18.845218
            ],
            [
              -99.677678,
              18.853185
            ],
            [
              -99.686332,
              18.861287
            ],
            [
              -99.694846,
              18.869522
            ],
            [
              -99.703219,
              18.877888
            ],
            [
              -99.711448,
              18.886383
            ],
            [
              -99.719531,
              18.895005
            ],
            [
              -99.727466,
              18.903752
            ],
            [
              -99.73525,
              18.91262
            ],
            [
              -99.742882,
              18.921608
            ],
            [
              -99.750359,
              18.930714
            ],
            [
              -99.757679,
              18.939934
            ],
            [
              -99.764841,
              18.949267
            ],
            [
              -99.771843,
              18.95871
            ],
            [
              -99.778682,
              18.968261
            ],
            [
              -99.785357,
              18.977917
            ],
            [
              -99.791866,
              18.987675
            ],
            [
              -99.798207,
              18.997532
            ],
            [
              -99.804379,
              19.007488
            ],
            [
              -99.81038,
              19.017537
            ],
            [
              -99.816207,
              19.027679
            ],
            [
              -99.821861,
              19.03791
            ],
            [
              -99.827338,
              19.048227
            ],
            [
              -99.832638,
              19.058628
            ],
            [
              -99.837759,
              19.069111
            ],
            [
              -99.8427,
              19.079671
            ],
            [
              -99.847459,
              19.090307
            ],
            [
              -99.852035,
              19.101016
            ],
            [
              -99.856427,
              19.111794
            ],
            [
              -99.860634,
              19.122639
            ],
            [
              -99.864654,
              19.133548
            ],
            [
              -99.868486,
              19.144518
            ],
            [
              -99.872129,
              19.155547
            ],
            [
              -99.875583,
              19.166631
            ],
            [
              -99.878846,
              19.177767
            ],
            [
              -99.881917,
              19.188952
            ],
            [
              -99.884796,
              19.200184
            ],
            [
              -99.887481,
              19.211459
            ],
            [
              -99.889972,
              19.222774
            ],
            [
              -99.892269,
              19.234127
            ],
            [
              -99.89437,
              19.245513
            ],
            [
              -99.896274,
              19.256932
            ],
            [
              -99.897982,
              19.268378
            ],
            [
              -99.899493,
              19.27985
            ],
            [
              -99.900807,
              19.291343
            ],
            [
              -99.901922,
              19.302856
            ],
            [
              -99.902839,
              19.314384
            ],
            [
              -99.903557,
              19.325926
            ],
            [
              -99.904077,
              19.337477
            ],
            [
              -99.904397,
              19.349035
            ],
            [
              -99.904518,
              19.360596
            ],
            [
              -99.904439,
              19.372158
            ],
            [
              -99.904162,
              19.383718
            ],
            [
              -99.903685,
              19.395271
            ],
            [
              -99.903008,
              19.406816
            ],
            [
              -99.902133,
              19.418349
            ],
            [
              -99.901059,
              19.429867
            ],
            [
              -99.899786,
              19.441367
            ],
            [
              -99.898314,
              19.452845
            ],
            [
              -99.896645,
              19.4643
            ],
            [
              -99.894778,
              19.475727
            ],
            [
              -99.892713,
              19.487124
            ],
            [
              -99.890452,
              19.498487
            ],
            [
              -99.887995,
              19.509814
            ],
            [
              -99.885342,
              19.521101
            ],
            [
              -99.882495,
              19.532345
            ],
            [
              -99.879453,
              19.543544
            ],
            [
              -99.876218,
              19.554695
            ],
            [
              -99.87279,
              19.565794
            ],
            [
              -99.86917,
              19.576838
            ],
            [
              -99.86536,
              19.587824
            ],
            [
              -99.86136,
              19.598751
            ],
            [
              -99.857171,
              19.609613
            ],
            [
              -99.852795,
              19.620409
            ],
            [
              -99.848232,
              19.631136
            ],
            [
              -99.843484,
              19.641791
            ],
            [
              -99.838551,
              19.652371
            ],
            [
              -99.833436,
              19.662872
            ],
            [
              -99.828139,
              19.673293
            ],
            [
              -99.822662,
              19.683631
            ],
            [
              -99.817007,
              19.693882
            ],
            [
              -99.811174,
              19.704043
            ],
            [
              -99.805165,
              19.714113
            ],
            [
              -99.798983,
              19.724089
            ],
            [
              -99.792628,
              19.733967
            ],
            [
              -99.786102,
              19.743745
            ],
            [
              -99.779407,
              19.753421
            ],
            [
              -99.772545,
              19.762991
            ],
            [
              -99.765518,
              19.772453
            ],
            [
              -99.758327,
              19.781806
            ],
            [
              -99.750974,
              19.791045
            ],
            [
              -99.743462,
              19.800169
            ],
            [
              -99.735791,
              19.809175
            ],
            [
              -99.727966,
              19.81806
            ],
            [
              -99.719986,
              19.826823
            ],
            [
              -99.711855,
              19.835461
            ],
            [
              -99.703575,
              19.843972
            ],
            [
              -99.695147,
              19.852352
            ],
            [
              -99.686575,
              19.860601
            ],
            [
              -99.677861,
              19.868716
            ],
            [
              -99.669006,
              19.876694
            ],
            [
              -99.660013,
              19.884533
            ],
            [
              -99.650885,
              19.892232
            ],
            [
              -99.641624,
              19.899788
            ],
            [
              -99.632232,
              19.907199
            ],
            [
              -99.622712,
              19.914463
            ],
            [
              -99.613067,
              19.921578
            ],
            [
              -99.6033,
              19.928543
            ],
            [
              -99.593412,
              19.935355
            ],
            [
              -99.583406,
              19.942012
            ],
            [
              -99.573286,
              19.948513
            ],
            [
              -99.563053,
              19.954856
            ],
            [
              -99.552712,
              19.961039
            ],
            [
              -99.542263,
              19.96706
            ],
            [
              -99.531711,
              19.972919
            ],
            [
              -99.521059,
              19.978613
            ],
            [
              -99.510308,
              19.98414
            ],
            [
              -99.499462,
              19.9895
            ],
            [
              -99.488524,
              19.99469
            ],
            [
              -99.477496,
              19.99971
            ],
            [
              -99.466383,
              20.004557
            ],
            [
              -99.455186,
              20.009232
            ],
            [
              -99.443909,
              20.013732
            ],
            [
              -99.432555,
              20.018056
            ],
            [
              -99.421127,
              20.022203
            ],
            [
              -99.409628,
              20.026171
            ],
            [
              -99.398062,
              20.029961
            ],
            [
              -99.38643,
              20.03357
            ],
            [
              -99.374737,
              20.036998
            ],
            [
              -99.362986,
              20.040244
            ],
            [
              -99.351179,
              20.043307
            ],
            [
              -99.339321,
              20.046186
            ],
            [
              -99.327414,
              20.048881
            ],
            [
              -99.315461,
              20.05139
            ],
            [
              -99.303466,
              20.053712
            ],
            [
              -99.291432,
              20.055849
            ],
            [
              -99.279363,
              20.057797
            ],
            [
              -99.26726,
              20.059558
            ],
            [
              -99.255129,
              20.061131
            ],
            [
              -99.242972,
              20.062515
            ],
            [
              -99.230792,
              20.06371
            ],
            [
              -99.218593,
              20.064715
            ],
            [
              -99.206378,
              20.065531
            ],
            [
              -99.194151,
              20.066157
            ],
            [
              -99.181914,
              20.066593
            ],
            [
              -99.169671,
              20.066838
            ],
            [
              -99.157426,
              20.066893
            ],
            [
              -99.145181,
              20.066758
            ],
            [
              -99.13294,
              20.066433
            ],
            [
              -99.120707,
              20.065917
            ],
            [
              -99.108485,
              20.065211
            ],
            [
              -99.096276,
              20.064316
            ],
            [
              -99.084085,
              20.063231
            ],
            [
              -99.071914,
              20.061956
            ],
            [
              -99.059767,
              20.060493
            ],
            [
              -99.047648,
              20.058841
            ],
            [
              -99.035559,
              20.057001
            ],
            [
              -99.023504,
              20.054973
            ],
            [
              -99.011486,
              20.052759
            ],
            [
              -98.999508,
              20.050357
            ],
            [
              -98.987574,
              20.04777
            ],
            [
              -98.975687,
              20.044998
            ],
            [
              -98.96385,
              20.042042
            ],
            [
              -98.952067,
              20.038902
            ],
            [
              -98.940339,
              20.035579
            ],
            [
              -98.928672,
              20.032075
            ],
            [
              -98.917067,
              20.02839
            ],
            [
              -98.905529,
              20.024525
            ],
            [
              -98.894059,
              20.020481
            ],
            [
              -98.882662,
              20.016259
            ],
            [
              -98.87134,
              20.011861
            ],
            [
              -98.860096,
              20.007288
            ],
            [
              -98.848934,
              20.00254
            ],
            [
              -98.837857,
              19.99762
            ],
            [
              -98.826867,
              19.992529
            ],
            [
              -98.815967,
              19.987267
            ],
            [
              -98.805161,
              19.981836
            ],
            [
              -98.794451,
              19.976239
            ],
            [
              -98.78384,
              19.970476
            ],
            [
              -98.773331,
              19.964549
            ],
            [
              -98.762927,
              19.958459
            ],
            [
              -98.752631,
              19.952208
            ],
            [
              -98.742446,
              19.945799
            ],
            [
              -98.732373,
              19.939232
            ],
            [
              -98.722417,
              19.932509
            ],
            [
              -98.712579,
              19.925633
            ],
            [
              -98.702863,
              19.918605
            ],
            [
              -98.69327,
              19.911427
            ],
            [
              -98.683804,
              19.904101
            ],
            [
              -98.674467,
              19.896629
            ],
            [
              -98.665261,
              19.889012
            ],
            [
              -98.65619,
              19.881254
            ],
            [
              -98.647255,
              19.873356
            ],
            [
              -98.638458,
              19.865321
            ],
            [
              -98.629803,
              19.857149
            ],
            [
              -98.621292,
              19.848845
            ],
            [
              -98.612926,
              19.840409
            ],
            [
              -98.604708,
              19.831845
            ],
            [
              -98.596641,
              19.823154
            ],
            [
              -98.588725,
              19.814339
            ],
            [
              -98.580965,
              19.805403
            ],
            [
              -98.573361,
              19.796347
            ],
            [
              -98.565915,
              19.787174
            ],
            [
              -98.55863,
              19.777887
            ],
            [
              -98.551508,
              19.768488
            ],
            [
              -98.544549,
              19.75898
            ],
            [
              -98.537757,
              19.749365
            ],
            [
              -98.531134,
              19.739646
            ],
            [
              -98.524679,
              19.729826
            ],
            [
              -98.518397,
              19.719907
            ],
            [
              -98.512287,
              19.709891
            ],
            [
              -98.506352,
              19.699782
            ],
            [
              -98.500594,
              19.689583
            ],
            [
              -98.495013,
              19.679295
            ],
            [
              -98.489612,
              19.668922
            ],
            [
              -98.484391,
              19.658467
            ],
            [
              -98.479353,
              19.647932
            ],
            [
              -98.474498,
              19.63732
            ],
            [
              -98.469827,
              19.626635
            ],
            [
              -98.465342,
              19.615879
            ],
            [
              -98.461045,
              19.605054
            ],
            [
              -98.456935,
              19.594165
            ],
            [
              -98.453015,
              19.583213
            ],
            [
              -98.449285,
              19.572201
            ],
            [
              -98.445746,
              19.561134
            ],
            [
              -98.442399,
              19.550013
            ],
            [
              -98.439245,
              19.538842
            ],
            [
              -98.436285,
              19.527623
            ],
            [
              -98.433519,
              19.51636
            ],
            [
              -98.430948,
              19.505056
            ],
            [
              -98.428573,
              19.493714
            ],
            [
              -98.426395,
              19.482336
            ],
            [
              -98.424413,
              19.470926
            ],
            [
              -98.422629,
              19.459487
            ],
            [
              -98.421043,
              19.448022
            ],
            [
              -98.419655,
              19.436534
            ],
            [
              -98.418465,
              19.425026
            ],
            [
              -98.417475,
              19.413502
            ],
            [
              -98.416683,
              19.401964
            ],
            [
              -98.41609,
              19.390415
            ],
            [
              -98.415697,
              19.378858
            ],
            [
              -98.415503,
              19.367298
            ],
            [
              -98.415509,
              19.355735
            ],
            [
              -98.415714,
              19.344175
            ],
            [
              -98.416118,
              19.33262
            ]
          ],
          [
            [
              -98.797293,
              19.358381
            ],
            [
              -98.797307,
              19.364013
            ],
            [
              -98.797417,
              19.369645
            ],
            [
              -98.797624,
              19.375275
            ],
            [
              -98.797928,
              19.3809
            ],
            [
              -98.79833,
              19.38652
            ],
            [
              -98.798828,
              19.392133
            ],
            [
              -98.799423,
              19.397738
            ],
            [
              -98.800115,
              19.403333
            ],
            [
              -98.800903,
              19.408916
            ],
            [
              -98.801787,
              19.414486
            ],
            [
              -98.802767,
              19.420042
            ],
            [
              -98.803843,
              19.425582
            ],
            [
              -98.805015,
              19.431105
            ],
            [
              -98.806282,
              19.436608
            ],
            [
              -98.807643,
              19.442091
            ],
            [
              -98.8091,
              19.447553
            ],
            [
              -98.81065,
              19.452991
            ],
            [
              -98.812294,
              19.458404
            ],
            [
              -98.814031,
              19.463791
            ],
            [
              -98.815861,
              19.469151
            ],
            [
              -98.817784,
              19.474481
            ],
            [
              -98.819798,
              19.479781
            ],
            [
              -98.821904,
              19.485048
            ],
            [
              -98.8241,
              19.490283
            ],
            [
              -98.826387,
              19.495482
            ],
            [
              -98.828763,
              19.500646
            ],
            [
              -98.831228,
              19.505772
            ],
            [
              -98.833781,
              19.510859
            ],
            [
              -98.836422,
              19.515905
            ],
            [
              -98.83915,
              19.52091
            ],
            [
              -98.841964,
              19.525872
            ],
            [
              -98.844864,
              19.53079
            ],
            [
              -98.847848,
              19.535661
            ],
            [
              -98.850917,
              19.540486
            ],
            [
              -98.854068,
              19.545263
            ],
            [
              -98.857301,
              19.54999
            ],
            [
              -98.860616,
              19.554666
            ],
            [
              -98.864012,
              19.55929
            ],
            [
              -98.867487,
              19.563861
            ],
            [
              -98.87104,
              19.568377
            ],
            [
              -98.874672,
              19.572838
            ],
            [
              -98.87838,
              19.577241
            ],
            [
              -98.882164,
              19.581587
            ],
            [
              -98.886022,
              19.585873
            ],
            [
              -98.889955,
              19.590098
            ],
            [
              -98.89396,
              19.594262
            ],
            [
              -98.898036,
              19.598363
            ],
            [
              -98.902184,
              19.6024
            ],
            [
              -98.9064,
              19.606372
            ],
            [
              -98.910685,
              19.610279
            ],
            [
              -98.915037,
              19.614118
            ],
            [
              -98.919455,
              19.617889
            ],
            [
              -98.923937,
              19.621591
            ],
            [
              -98.928483,
              19.625223
            ],
            [
              -98.933092,
              19.628783
            ],
            [
              -98.937761,
              19.632272
            ],
            [
              -98.942491,
              19.635688
            ],
            [
              -98.947279,
              19.63903
            ],
            [
              -98.952124,
              19.642297
            ],
            [
              -98.957026,
              19.645488
            ],
            [
              -98.961982,
              19.648603
            ],
            [
              -98.966991,
              19.65164
            ],
            [
              -98.972053,
              19.654599
            ],
            [
              -98.977165,
              19.657479
            ],
            [
              -98.982326,
              19.660279
            ],
            [
              -98.987535,
              19.662999
            ],
            [
              -98.992791,
              19.665638
            ],
            [
              -98.998092,
              19.668194
            ],
            [
              -99.003436,
              19.670668
            ],
            [
              -99.008823,
              19.673058
            ],
            [
              -99.01425,
              19.675365
            ],
            [
              -99.019717,
              19.677587
            ],
            [
              -99.025221,
              19.679723
            ],
            [
              -99.030762,
              19.681774
            ],
            [
              -99.036338,
              19.683739
            ],
            [
              -99.041947,
              19.685616
            ],
            [
              -99.047588,
              19.687407
            ],
            [
              -99.053259,
              19.689109
            ],
            [
              -99.058959,
              19.690723
            ],
            [
              -99.064686,
              19.692248
            ],
            [
              -99.070439,
              19.693684
            ],
            [
              -99.076216,
              19.695031
            ],
            [
              -99.082016,
              19.696287
            ],
            [
              -99.087836,
              19.697454
            ],
            [
              -99.093676,
              19.69853
            ],
            [
              -99.099534,
              19.699514
            ],
            [
              -99.105409,
              19.700408
            ],
            [
              -99.111298,
              19.701211
            ],
            [
              -99.1172,
              19.701921
            ],
            [
              -99.123114,
              19.70254
            ],
            [
              -99.129037,
              19.703067
            ],
            [
              -99.13497,
              19.703502
            ],
            [
              -99.140908,
              19.703845
            ],
            [
              -99.146852,
              19.704096
            ],
            [
              -99.1528,
              19.704254
            ],
            [
              -99.158749,
              19.704319
            ],
            [
              -99.164699,
              19.704292
            ],
            [
              -99.170648,
              19.704173
            ],
            [
              -99.176593,
              19.703962
            ],
            [
              -99.182534,
              19.703658
            ],
            [
              -99.188469,
              19.703261
            ],
            [
              -99.194397,
              19.702773
            ],
            [
              -99.200315,
              19.702193
            ],
            [
              -99.206222,
              19.701521
            ],
            [
              -99.212117,
              19.700757
            ],
            [
              -99.217998,
              19.699901
            ],
            [
              -99.223863,
              19.698955
            ],
            [
              -99.229711,
              19.697917
            ],
            [
              -99.23554,
              19.696789
            ],
            [
              -99.241348,
              19.69557
            ],
            [
              -99.247135,
              19.694261
            ],
            [
              -99.252898,
              19.692863
            ],
            [
              -99.258637,
              19.691375
            ],
            [
              -99.264348,
              19.689798
            ],
            [
              -99.270032,
              19.688133
            ],
            [
              -99.275685,
              19.68638
            ],
            [
              -99.281308,
              19.684539
            ],
            [
              -99.286898,
              19.682611
            ],
            [
              -99.292454,
              19.680596
            ],
            [
              -99.297974,
              19.678495
            ],
            [
              -99.303456,
              19.676309
            ],
            [
              -99.3089,
              19.674038
            ],
            [
              -99.314304,
              19.671683
            ],
            [
              -99.319667,
              19.669244
            ],
            [
              -99.324986,
              19.666723
            ],
            [
              -99.330261,
              19.664118
            ],
            [
              -99.33549,
              19.661433
            ],
            [
              -99.340671,
              19.658666
            ],
            [
              -99.345804,
              19.65582
            ],
            [
              -99.350887,
              19.652894
            ],
            [
              -99.355918,
              19.649889
            ],
            [
              -99.360897,
              19.646807
            ],
            [
              -99.365822,
              19.643648
            ],
            [
              -99.370691,
              19.640412
            ],
            [
              -99.375503,
              19.637102
            ],
            [
              -99.380257,
              19.633717
            ],
            [
              -99.384952,
              19.630259
            ],
            [
              -99.389587,
              19.626728
            ],
            [
              -99.394159,
              19.623126
            ],
            [
              -99.398669,
              19.619454
            ],
            [
              -99.403114,
              19.615712
            ],
            [
              -99.407494,
              19.611901
            ],
            [
              -99.411807,
              19.608023
            ],
            [
              -99.416052,
              19.604078
            ],
            [
              -99.420229,
              19.600068
            ],
            [
              -99.424335,
              19.595994
            ],
            [
              -99.42837,
              19.591856
            ],
            [
              -99.432333,
              19.587656
            ],
            [
              -99.436223,
              19.583396
            ],
            [
              -99.440038,
              19.579075
            ],
            [
              -99.443779,
              19.574696
            ],
            [
              -99.447442,
              19.57026
            ],
            [
              -99.451029,
              19.565767
            ],
            [
              -99.454537,
              19.561219
            ],
            [
              -99.457966,
              19.556617
            ],
            [
              -99.461315,
              19.551962
            ],
            [
              -99.464583,
              19.547256
            ],
            [
              -99.467769,
              19.542501
            ],
            [
              -99.470872,
              19.537696
            ],
            [
              -99.473892,
              19.532843
            ],
            [
              -99.476827,
              19.527945
            ],
            [
              -99.479677,
              19.523002
            ],
            [
              -99.482441,
              19.518015
            ],
            [
              -99.485119,
              19.512985
            ],
            [
              -99.487709,
              19.507915
            ],
            [
              -99.490212,
              19.502806
            ],
            [
              -99.492625,
              19.497658
            ],
            [
              -99.49495,
              19.492473
            ],
            [
              -99.497184,
              19.487253
            ],
            [
              -99.499328,
              19.481999
            ],
            [
              -99.501381,
              19.476713
            ],
            [
              -99.503342,
              19.471395
            ],
            [
              -99.505211,
              19.466048
            ],
            [
              -99.506987,
              19.460672
            ],
            [
              -99.50867,
              19.45527
            ],
            [
              -99.51026,
              19.449842
            ],
            [
              -99.511756,
              19.44439
            ],
            [
              -99.513157,
              19.438916
            ],
            [
              -99.514464,
              19.433421
            ],
            [
              -99.515676,
              19.427906
            ],
            [
              -99.516792,
              19.422373
            ],
            [
              -99.517812,
              19.416824
            ],
            [
              -99.518737,
              19.41126
            ],
            [
              -99.519566,
              19.405682
            ],
            [
              -99.520298,
              19.400092
            ],
            [
              -99.520934,
              19.394491
            ],
            [
              -99.521472,
              19.388881
            ],
            [
              -99.521915,
              19.383264
            ],
            [
              -99.52226,
              19.37764
            ],
            [
              -99.522508,
              19.372012
            ],
            [
              -99.522659,
              19.366381
            ],
            [
              -99.522713,
              19.360749
            ],
            [
              -99.52267,
              19.355116
            ],
            [
              -99.52253,
              19.349485
            ],
            [
              -99.522292,
              19.343857
            ],
            [
              -99.521958,
              19.338233
            ],
            [
              -99.521527,
              19.332615
            ],
            [
              -99.520999,
              19.327005
            ],
            [
              -99.520375,
              19.321404
            ],
            [
              -99.519654,
              19.315813
            ],
            [
              -99.518837,
              19.310234
            ],
            [
              -99.517924,
              19.304669
            ],
            [
              -99.516915,
              19.299118
            ],
            [
              -99.515811,
              19.293584
            ],
            [
              -99.514612,
              19.288068
            ],
            [
              -99.513318,
              19.282571
            ],
            [
              -99.51193,
              19.277096
            ],
            [
              -99.510447,
              19.271642
            ],
            [
              -99.508871,
              19.266212
            ],
            [
              -99.507202,
              19.260808
            ],
            [
              -99.50544,
              19.25543
            ],
            [
              -99.503585,
              19.250081
            ],
            [
              -99.501639,
              19.24476
            ],
            [
              -99.499602,
              19.239471
            ],
            [
              -99.497474,
              19.234214
            ],
            [
              -99.495256,
              19.228991
            ],
            [
              -99.492948,
              19.223804
            ],
            [
              -99.490552,
              19.218652
            ],
            [
              -99.488067,
              19.213539
            ],
            [
              -99.485495,
              19.208465
            ],
            [
              -99.482836,
              19.203431
            ],
            [
              -99.480091,
              19.19844
            ],
            [
              -99.47726,
              19.193492
            ],
            [
              -99.474345,
              19.188588
            ],
            [
              -99.471346,
              19.183731
            ],
            [
              -99.468264,
              19.17892
            ],
            [
              -99.465099,
              19.174159
            ],
            [
              -99.461854,
              19.169447
            ],
            [
              -99.458527,
              19.164786
            ],
            [
              -99.455122,
              19.160177
            ],
            [
              -99.451637,
              19.155622
            ],
            [
              -99.448075,
              19.151121
            ],
            [
              -99.444436,
              19.146677
            ],
            [
              -99.440722,
              19.142289
            ],
            [
              -99.436932,
              19.13796
            ],
            [
              -99.433069,
              19.133691
            ],
            [
              -99.429133,
              19.129482
            ],
            [
              -99.425125,
              19.125334
            ],
            [
              -99.421047,
              19.12125
            ],
            [
              -99.416899,
              19.117229
            ],
            [
              -99.412683,
              19.113273
            ],
            [
              -99.408399,
              19.109383
            ],
            [
              -99.40405,
              19.10556
            ],
            [
              -99.399635,
              19.101806
            ],
            [
              -99.395157,
              19.09812
            ],
            [
              -99.390616,
              19.094504
            ],
            [
              -99.386013,
              19.09096
            ],
            [
              -99.381351,
              19.087487
            ],
            [
              -99.376629,
              19.084087
            ],
            [
              -99.37185,
              19.080761
            ],
            [
              -99.367015,
              19.07751
            ],
            [
              -99.362124,
              19.074334
            ],
            [
              -99.35718,
              19.071234
            ],
            [
              -99.352183,
              19.068212
            ],
            [
              -99.347135,
              19.065267
            ],
            [
              -99.342038,
              19.062402
            ],
            [
              -99.336892,
              19.059615
            ],
            [
              -99.331699,
              19.05691
            ],
            [
              -99.32646,
              19.054285
            ],
            [
              -99.321177,
              19.051742
            ],
            [
              -99.315851,
              19.049281
            ],
            [
              -99.310483,
              19.046903
            ],
            [
              -99.305076,
              19.044609
            ],
            [
              -99.29963,
              19.042399
            ],
            [
              -99.294147,
              19.040274
            ],
            [
              -99.288628,
              19.038234
            ],
            [
              -99.283075,
              19.03628
            ],
            [
              -99.27749,
              19.034413
            ],
            [
              -99.271873,
              19.032633
            ],
            [
              -99.266226,
              19.03094
            ],
            [
              -99.260552,
              19.029335
            ],
            [
              -99.25485,
              19.027818
            ],
            [
              -99.249123,
              19.02639
            ],
            [
              -99.243373,
              19.025051
            ],
            [
              -99.2376,
              19.023802
            ],
            [
              -99.231807,
              19.022642
            ],
            [
              -99.225995,
              19.021572
            ],
            [
              -99.220165,
              19.020593
            ],
            [
              -99.214319,
              19.019704
            ],
            [
              -99.208459,
              19.018907
            ],
            [
              -99.202586,
              19.0182
            ],
            [
              -99.196701,
              19.017584
            ],
            [
              -99.190807,
              19.017061
            ],
            [
              -99.184904,
              19.016628
            ],
            [
              -99.178995,
              19.016287
            ],
            [
              -99.173081,
              19.016038
            ],
            [
              -99.167164,
              19.015881
            ],
            [
              -99.161244,
              19.015816
            ],
            [
              -99.155325,
              19.015843
            ],
            [
              -99.149406,
              19.015961
            ],
            [
              -99.14349,
              19.016171
            ],
            [
              -99.137579,
              19.016474
            ],
            [
              -99.131674,
              19.016868
            ],
            [
              -99.125776,
              19.017353
            ],
            [
              -99.119887,
              19.01793
            ],
            [
              -99.114009,
              19.018598
            ],
            [
              -99.108143,
              19.019358
            ],
            [
              -99.102291,
              19.020208
            ],
            [
              -99.096454,
              19.021149
            ],
            [
              -99.090634,
              19.022181
            ],
            [
              -99.084833,
              19.023303
            ],
            [
              -99.079052,
              19.024515
            ],
            [
              -99.073292,
              19.025816
            ],
            [
              -99.067555,
              19.027207
            ],
            [
              -99.061842,
              19.028686
            ],
            [
              -99.056156,
              19.030254
            ],
            [
              -99.050497,
              19.03191
            ],
            [
              -99.044868,
              19.033654
            ],
            [
              -99.039269,
              19.035485
            ],
            [
              -99.033702,
              19.037402
            ],
            [
              -99.028169,
              19.039406
            ],
            [
              -99.022671,
              19.041495
            ],
            [
              -99.017209,
              19.043669
            ],
            [
              -99.011785,
              19.045928
            ],
            [
              -99.006401,
              19.048271
            ],
            [
              -99.001057,
              19.050697
            ],
            [
              -98.995756,
              19.053205
            ],
            [
              -98.990499,
              19.055796
            ],
            [
              -98.985286,
              19.058468
            ],
            [
              -98.98012,
              19.06122
            ],
            [
              -98.975002,
              19.064053
            ],
            [
              -98.969933,
              19.066964
            ],
            [
              -98.964914,
              19.069954
            ],
            [
              -98.959948,
              19.073021
            ],
            [
              -98.955035,
              19.076165
            ],
            [
              -98.950176,
              19.079385
            ],
            [
              -98.945373,
              19.08268
            ],
            [
              -98.940627,
              19.086049
            ],
            [
              -98.93594,
              19.089491
            ],
            [
              -98.931312,
              19.093005
            ],
            [
              -98.926745,
              19.096591
            ],
            [
              -98.92224,
              19.100248
            ],
            [
              -98.917798,
              19.103973
            ],
            [
              -98.913421,
              19.107768
            ],
            [
              -98.90911,
              19.111629
            ],
            [
              -98.904865,
              19.115558
            ],
            [
              -98.900688,
              19.119551
            ],
            [
              -98.896581,
              19.123609
            ],
            [
              -98.892543,
              19.12773
            ],
            [
              -98.888577,
              19.131914
            ],
            [
              -98.884683,
              19.136158
            ],
            [
              -98.880862,
              19.140462
            ],
            [
              -98.877116,
              19.144825
            ],
            [
              -98.873445,
              19.149246
            ],
            [
              -98.869851,
              19.153723
            ],
            [
              -98.866334,
              19.158255
            ],
            [
              -98.862895,
              19.162842
            ],
            [
              -98.859535,
              19.167481
            ],
            [
              -98.856255,
              19.172171
            ],
            [
              -98.853057,
              19.176912
            ],
            [
              -98.84994,
              19.181703
            ],
            [
              -98.846906,
              19.18654
            ],
            [
              -98.843955,
              19.191425
            ],
            [
              -98.841089,
              19.196354
            ],
            [
              -98.838308,
              19.201328
            ],
            [
              -98.835613,
              19.206344
            ],
            [
              -98.833004,
              19.211401
            ],
            [
              -98.830482,
              19.216498
            ],
            [
              -98.828048,
              19.221633
            ],
            [
              -98.825703,
              19.226806
            ],
            [
              -98.823448,
              19.232014
            ],
            [
              -98.821282,
              19.237257
            ],
            [
              -98.819206,
              19.242533
            ],
            [
              -98.817222,
              19.24784
            ],
            [
              -98.815329,
              19.253178
            ],
            [
              -98.813528,
              19.258544
            ],
            [
              -98.811819,
              19.263937
            ],
            [
              -98.810204,
              19.269356
            ],
            [
              -98.808682,
              19.2748
            ],
            [
              -98.807254,
              19.280267
            ],
            [
              -98.80592,
              19.285755
            ],
            [
              -98.804681,
              19.291263
            ],
            [
              -98.803537,
              19.296789
            ],
            [
              -98.802488,
              19.302333
            ],
            [
              -98.801535,
              19.307892
            ],
            [
              -98.800678,
              19.313466
            ],
            [
              -98.799917,
              19.319052
            ],
            [
              -98.799252,
              19.324649
            ],
            [
              -98.798683,
              19.330256
            ],
            [
              -98.798211,
              19.33587
            ],
            [
              -98.797836,
              19.341492
            ],
            [
              -98.797558,
              19.347118
            ],
            [
              -98.797377,
              19.352748
            ],
            [
              -98.797293,
              19.358381
            ]
          ]
        ]
      }
    }
  ]
}