{
  "type": "FeatureCollection",
  "name": "pixkuy_zones_cdmx_v2_refined_manual",
  "features": [
    {
      "type": "Feature",
      "properties": {
        "zoneId": "centro",
        "labelKey": "services.cards.airport.panel.catalog.zones.centro",
        "active": true,
        "priority": 100,
        "city": "cdmx",
        "zoneCode": "CENTRO"
      },
      "geometry": {
  "type": "Polygon",
  "coordinates": [
    [
      [
        -99.166,
        19.446
      ],
      [
        -99.151,
        19.446
      ],
      [
        -99.129,
        19.446
      ],
      [
        -99.123,
        19.438
      ],
      [
        -99.126,
        19.431
      ],
      [
        -99.137,
        19.426
      ],
      [
        -99.149,
        19.423
      ],
      [
        -99.16,
        19.423
      ],
      [
        -99.166,
        19.428
      ],
      [
        -99.166,
        19.446
      ]
    ]
  ]
}
    },
    {
      "type": "Feature",
      "properties": {
        "zoneId": "reforma",
        "labelKey": "services.cards.airport.panel.catalog.zones.reforma",
        "active": true,
        "priority": 100,
        "city": "cdmx",
        "zoneCode": "REFORMA"
      },
      "geometry": {
  "type": "Polygon",
  "coordinates": [
    [
      [
        -99.172,
        19.439
      ],
      [
        -99.166,
        19.43857142857143
      ],
      [
        -99.166,
        19.428
      ],
      [
        -99.16,
        19.423
      ],
      [
        -99.149,
        19.423
      ],
      [
        -99.14788,
        19.42328
      ],
      [
        -99.148,
        19.423
      ],
      [
        -99.158,
        19.418
      ],
      [
        -99.174,
        19.416
      ],
      [
        -99.188,
        19.416
      ],
      [
        -99.196,
        19.423
      ],
      [
        -99.196,
        19.4242
      ],
      [
        -99.172,
        19.4242
      ],
      [
        -99.172,
        19.439
      ]
    ]
  ]
}
    },
    {
      "type": "Feature",
      "properties": {
        "zoneId": "polanco",
        "labelKey": "services.cards.airport.panel.catalog.zones.polanco",
        "active": true,
        "priority": 100,
        "city": "cdmx",
        "zoneCode": "POLANCO"
      },
      "geometry": {
      "type": "Polygon",
      "coordinates": [
        [
          [
            -99.193,
            19.455
          ],
          [
            -99.183,
            19.448
          ],
          [
            -99.172,
            19.439
          ],
          [
            -99.172,
            19.423
          ],
          [
            -99.196,
            19.423
          ],
          [
            -99.209,
            19.428
          ],
          [
            -99.223,
            19.431
          ],
          [
            -99.231,
            19.44
          ],
          [
            -99.229,
            19.459
          ],
          [
            -99.207,
            19.459
          ],
          [
            -99.193,
            19.455
          ]
        ]
      ]
    }
    },
    {
  "type": "Feature",
  "properties": {
    "zoneId": "roma_condesa",
    "labelKey": "services.cards.airport.panel.catalog.zones.roma_condesa",
    "active": true,
    "priority": 100,
    "city": "cdmx",
    "zoneCode": "ROMA_CONDESA"
  },
  "geometry": {
  "type": "Polygon",
  "coordinates": [
    [
      [
        -99.147,
        19.41
      ],
      [
        -99.139,
        19.404
      ],
      [
        -99.141,
        19.396
      ],
      [
        -99.154,
        19.39
      ],
      [
        -99.168,
        19.389
      ],
      [
        -99.181,
        19.39
      ],
      [
        -99.1872,
        19.395
      ],
      [
        -99.1872,
        19.405
      ],
      [
        -99.19,
        19.423
      ],
      [
        -99.166,
        19.423
      ],
      [
        -99.152,
        19.42
      ],
      [
        -99.147,
        19.41
      ]
    ]
  ]
}
},
    {
      "type": "Feature",
      "properties": {
        "zoneId": "santa_fe",
        "labelKey": "services.cards.airport.panel.catalog.zones.santa_fe",
        "active": true,
        "priority": 100,
        "city": "cdmx",
        "zoneCode": "SANTA_FE"
      },
      "geometry": {
        "type": "Polygon",
        "coordinates": [
          [
            [
              -99.231,
              19.367
            ],
            [
              -99.239,
              19.352
            ],
            [
              -99.253,
              19.342
            ],
            [
              -99.272,
              19.3405
            ],
            [
              -99.285,
              19.346
            ],
            [
              -99.291,
              19.36
            ],
            [
              -99.289,
              19.377
            ],
            [
              -99.286,
              19.393
            ],
            [
              -99.265,
              19.393
            ],
            [
              -99.248,
              19.388
            ],
            [
              -99.236,
              19.38
            ],
            [
              -99.231,
              19.367
            ]
          ]
        ]
      }
    },
    {
      "type": "Feature",
      "properties": {
        "zoneId": "coyoacan_del_valle_napoles",
        "labelKey": "services.cards.airport.panel.catalog.zones.coyoacan_del_valle_napoles",
        "active": true,
        "priority": 100,
        "city": "cdmx",
        "zoneCode": "COYOACAN_DELVALLE_NAPOLES"
      },
      "geometry": {
        "type": "Polygon",
        "coordinates": [
          [
            [
              -99.131,
              19.375
            ],
            [
              -99.128,
              19.364
            ],
            [
              -99.133,
              19.356
            ],
            [
              -99.146,
              19.352
            ],
            [
              -99.163,
              19.352
            ],
            [
              -99.181,
              19.355
            ],
            [
              -99.193,
              19.361
            ],
            [
              -99.199,
              19.371
            ],
            [
              -99.198,
              19.389
            ],
            [
              -99.18,
              19.389
            ],
            [
              -99.164,
              19.389
            ],
            [
              -99.149,
              19.387
            ],
            [
              -99.14,
              19.383
            ],
            [
              -99.131,
              19.375
            ]
          ]
        ]
      }
    },
    {
      "type": "Feature",
      "properties": {
        "zoneId": "sur",
        "labelKey": "services.cards.airport.panel.catalog.zones.sur",
        "active": true,
        "priority": 100,
        "city": "cdmx",
        "zoneCode": "SUR"
      },
      "geometry": {
        "type": "Polygon",
        "coordinates": [
          [
            [
              -99.099,
              19.346
            ],
            [
              -99.079,
              19.335
            ],
            [
              -99.067,
              19.316
            ],
            [
              -99.06,
              19.294
            ],
            [
              -99.066,
              19.267
            ],
            [
              -99.081,
              19.243
            ],
            [
              -99.108,
              19.226
            ],
            [
              -99.144,
              19.221
            ],
            [
              -99.183,
              19.223
            ],
            [
              -99.214,
              19.231
            ],
            [
              -99.234,
              19.246
            ],
            [
              -99.245,
              19.269
            ],
            [
              -99.247,
              19.299
            ],
            [
              -99.24602071005917,
              19.346985207100598
            ],
            [
              -99.2446,
              19.348
            ],
            [
              -99.221,
              19.348
            ],
            [
              -99.198,
              19.347
            ],
            [
              -99.174,
              19.348
            ],
            [
              -99.15,
              19.348
            ],
            [
              -99.126,
              19.347
            ],
            [
              -99.099,
              19.346
            ]
          ]
        ]
      }
    },
    {
      "type": "Feature",
      "properties": {
        "zoneId": "norte",
        "labelKey": "services.cards.airport.panel.catalog.zones.norte",
        "active": true,
        "priority": 100,
        "city": "cdmx",
        "zoneCode": "NORTE"
      },
      "geometry": {
        "type": "MultiPolygon",
        "coordinates": [
          [
            [
              [
                -99.275,
                19.507
              ],
              [
                -99.276,
                19.534
              ],
              [
                -99.272,
                19.56
              ],
              [
                -99.236,
                19.56
              ],
              [
                -99.221,
                19.545
              ],
              [
                -99.22,
                19.519
              ],
              [
                -99.229,
                19.499
              ],
              [
                -99.246,
                19.486
              ],
              [
                -99.265,
                19.489
              ],
              [
                -99.275,
                19.507
              ]
            ]
          ],
                [
        [
          [
            -99.132,
            19.455
          ],
          [
            -99.149,
            19.454
          ],
          [
            -99.166,
            19.458
          ],
          [
            -99.176,
            19.468
          ],
          [
            -99.178,
            19.503
          ],
          [
            -99.178,
            19.528
          ],
          [
            -99.175,
            19.562
          ],
          [
            -99.13,
            19.562
          ],
          [
            -99.104,
            19.553
          ],
          [
            -99.089,
            19.538
          ],
          [
            -99.086,
            19.515
          ],
          [
            -99.093,
            19.494
          ],
          [
            -99.109,
            19.479
          ],
          [
            -99.132,
            19.455
          ]
        ]
      ]
        ]
      }
    },
    {
      "type": "Feature",
      "properties": {
        "zoneId": "aeropuerto_oriente",
        "labelKey": "services.cards.airport.panel.catalog.zones.aeropuerto_oriente",
        "active": true,
        "priority": 100,
        "city": "cdmx",
        "zoneCode": "AEROPUERTO_ORIENTE"
      },
      "geometry": {
  "type": "Polygon",
  "coordinates": [
    [
      [
        -99.01,
        19.38
      ],
      [
        -99.025,
        19.369
      ],
      [
        -99.049,
        19.362
      ],
      [
        -99.079,
        19.36
      ],
      [
        -99.105,
        19.36
      ],
      [
        -99.124,
        19.364
      ],
      [
        -99.12917647058823,
        19.3683137254902
      ],
      [
        -99.131,
        19.375
      ],
      [
        -99.13775,
        19.381
      ],
      [
        -99.14,
        19.39
      ],
      [
        -99.136,
        19.408
      ],
      [
        -99.132,
        19.42
      ],
      [
        -99.126,
        19.431
      ],
      [
        -99.123,
        19.438
      ],
      [
        -99.129,
        19.446
      ],
      [
        -99.118,
        19.446
      ],
      [
        -99.096,
        19.446
      ],
      [
        -99.078,
        19.439
      ],
      [
        -99.059,
        19.425
      ],
      [
        -99.04,
        19.413
      ],
      [
        -99.019,
        19.404
      ],
      [
        -99.008,
        19.394
      ],
      [
        -99.01,
        19.38
      ]
    ]
  ]
}
    }
  ]
}